0 COSMOS 1932 DEB
1 38845U 88019G   13287.03631388  .00000064  00000-0  14479-3 0   277
2 38845 065.0367 134.1322 0052966 336.9945 022.7607 13.79868196 94566
0 COSMOS 1932 DEB
1 38845U 88019G   13295.87834767  .00000081  00000-0  16104-3 0   281
2 38845 065.0374 111.4327 0053229 334.9931 024.8527 13.79871380 95781
